[{"OBJECT_NAME":"ONEWEB-0267","OBJECT_ID":"2021-060U","EPOCH":"2026-03-09T23:09:12.675456","MEAN_MOTION":13.16593432,"ECCENTRICITY":0.0001657,"INCLINATION":87.9004,"RA_OF_ASC_NODE":248.506,"ARG_OF_PERICENTER":102.7004,"MEAN_ANOMALY":257.4312,"EPHEMERIS_TYPE":0,"CLASSIFICATION_TYPE":"U","NORAD_CAT_ID":48985,"ELEMENT_SET_NO":999,"REV_AT_EPOCH":22653,"BSTAR":9.9371329e-5,"MEAN_MOTION_DOT":5.1e-7,"MEAN_MOTION_DDOT":0},{"OBJECT_NAME":"DELTA 1 DEB","OBJECT_ID":"1976-077CV","EPOCH":"2026-03-09T22:50:53.190528","MEAN_MOTION":12.97755504,"ECCENTRICITY":0.04153215,"INCLINATION":101.8203,"RA_OF_ASC_NODE":67.4122,"ARG_OF_PERICENTER":107.5955,"MEAN_ANOMALY":312.1504,"EPHEMERIS_TYPE":0,"CLASSIFICATION_TYPE":"U","NORAD_CAT_ID":10867,"ELEMENT_SET_NO":999,"REV_AT_EPOCH":30419,"BSTAR":0.0044849083,"MEAN_MOTION_DOT":1.899e-5,"MEAN_MOTION_DDOT":0}]
